start=new Date('2022-08-10T00:00:00.000Z').valueOf();
sats=[{"PERIAPSIS":"538.564","REF_FRAME":"TEME","APOAPSIS":"541.147","MEAN_MOTION_DDOT":"0.0000000000000","MEAN_ANOMALY":"290.9690","BSTAR":"0.00245810000000","PERIOD":"95.440","DECAY_DATE":null,"OBJECT_TYPE":"PAYLOAD","FILE":"3533123","GP_ID":"209931714","CLASSIFICATION_TYPE":"U","COUNTRY_CODE":"US","OBJECT_ID":"2022-053V","EPHEMERIS_TYPE":"0","ECCENTRICITY":"0.00018670","CENTER_NAME":"EARTH","RA_OF_ASC_NODE":"254.9445","REV_AT_EPOCH":"130","INCLINATION":"53.2141","SITE":"AFETR","RCS_SIZE":"LARGE","MEAN_MOTION_DOT":"0.00039011","TIME_SYSTEM":"UTC","ARG_OF_PERICENTER":"41.5750","MEAN_MOTION":"15.08803908","MEAN_ELEMENT_THEORY":"SGP4","OBJECT_NAME":"STARLINK-3934","SEMIMAJOR_AXIS":"6917.991","TLE_LINE2":"2 52675  53.2141 254.9445 0001867  41.5750 290.9690 15.08803908  1301","LAUNCH_DATE":"2022-05-18","ELEMENT_SET_NO":"999","EPOCH":"2022-08-09T22:00:00.999936","TLE_LINE1":"1 52675U 22053V   22221.91667824  .00039011  00000-0  24581-2 0  9995","NORAD_CAT_ID":"52675"},{"TLE_LINE2":"2 52676  53.2176 264.9309 0001792  35.4069 262.1362 15.08803418  1305","ELEMENT_SET_NO":"999","LAUNCH_DATE":"2022-05-18","EPOCH":"2022-08-09T22:00:00.999936","TLE_LINE1":"1 52676U 22053W   22221.91667824  .00026130  00000-0  16554-2 0  9995","NORAD_CAT_ID":"52676","MEAN_MOTION":"15.08803418","MEAN_ELEMENT_THEORY":"SGP4","OBJECT_NAME":"STARLINK-4006","ARG_OF_PERICENTER":"35.4069","SEMIMAJOR_AXIS":"6917.992","TIME_SYSTEM":"UTC","MEAN_MOTION_DOT":"0.00026130","REV_AT_EPOCH":"130","INCLINATION":"53.2176","RCS_SIZE":"LARGE","SITE":"AFETR","ECCENTRICITY":"0.00017920","CENTER_NAME":"EARTH","RA_OF_ASC_NODE":"264.9309","FILE":"3533123","COUNTRY_CODE":"US","OBJECT_ID":"2022-053W","EPHEMERIS_TYPE":"0","GP_ID":"209931976","CLASSIFICATION_TYPE":"U","PERIOD":"95.440","OBJECT_TYPE":"PAYLOAD","DECAY_DATE":null,"REF_FRAME":"TEME","APOAPSIS":"541.097","PERIAPSIS":"538.618","MEAN_ANOMALY":"262.1362","BSTAR":"0.00165540000000","MEAN_MOTION_DDOT":"0.0000000000000"},{"TLE_LINE1":"1 52677U 22053X   22221.91667824  .00038202  00000-0  24085-2 0  9997","NORAD_CAT_ID":"52677","EPOCH":"2022-08-09T22:00:00.999936","LAUNCH_DATE":"2022-05-18","ELEMENT_SET_NO":"999","TLE_LINE2":"2 52677  53.2148 254.9415 0001767  47.4465 325.0832 15.08792998  1308","SEMIMAJOR_AXIS":"6918.024","ARG_OF_PERICENTER":"47.4465","OBJECT_NAME":"STARLINK-4028","MEAN_MOTION":"15.08792998","MEAN_ELEMENT_THEORY":"SGP4","MEAN_MOTION_DOT":"0.00038202","TIME_SYSTEM":"UTC","SITE":"AFETR","RCS_SIZE":"LARGE","INCLINATION":"53.2148","REV_AT_EPOCH":"130","RA_OF_ASC_NODE":"254.9415","CENTER_NAME":"EARTH","ECCENTRICITY":"0.00017670","CLASSIFICATION_TYPE":"U","GP_ID":"209932243","EPHEMERIS_TYPE":"0","COUNTRY_CODE":"US","OBJECT_ID":"2022-053X","FILE":"3533123","DECAY_DATE":null,"OBJECT_TYPE":"PAYLOAD","PERIOD":"95.441","MEAN_MOTION_DDOT":"0.0000000000000","BSTAR":"0.00240850000000","MEAN_ANOMALY":"325.0832","PERIAPSIS":"538.667","APOAPSIS":"541.111","REF_FRAME":"TEME"},{"PERIAPSIS":"538.618","APOAPSIS":"540.992","REF_FRAME":"TEME","MEAN_MOTION_DDOT":"0.0000000000000","BSTAR":"0.00244070000000","MEAN_ANOMALY":"284.0776","PERIOD":"95.439","DECAY_DATE":null,"OBJECT_TYPE":"PAYLOAD","FILE":"3533123","GP_ID":"209932624","CLASSIFICATION_TYPE":"U","COUNTRY_CODE":"US","OBJECT_ID":"2022-053Y","EPHEMERIS_TYPE":"0","CENTER_NAME":"EARTH","ECCENTRICITY":"0.00017160","RA_OF_ASC_NODE":"254.9442","REV_AT_EPOCH":"130","INCLINATION":"53.2134","SITE":"AFETR","RCS_SIZE":"LARGE","MEAN_MOTION_DOT":"0.00038749","TIME_SYSTEM":"UTC","ARG_OF_PERICENTER":"43.2170","OBJECT_NAME":"STARLINK-4074","MEAN_MOTION":"15.08820392","MEAN_ELEMENT_THEORY":"SGP4","SEMIMAJOR_AXIS":"6917.940","ELEMENT_SET_NO":"999","LAUNCH_DATE":"2022-05-18","TLE_LINE2":"2 52678  53.2134 254.9442 0001716  43.2170 284.0776 15.08820392  1306","NORAD_CAT_ID":"52678","TLE_LINE1":"1 52678U 22053Y   22221.91667824  .00038749  00000-0  24407-2 0  9992","EPOCH":"2022-08-09T22:00:00.999936"},{"PERIOD":"95.440","DECAY_DATE":null,"OBJECT_TYPE":"PAYLOAD","PERIAPSIS":"538.471","APOAPSIS":"541.271","REF_FRAME":"TEME","MEAN_MOTION_DDOT":"0.0000000000000","BSTAR":"0.00077001000000","MEAN_ANOMALY":"29.7906","CENTER_NAME":"EARTH","ECCENTRICITY":"0.00020240","RA_OF_ASC_NODE":"254.9388","FILE":"3533123","GP_ID":"209932113","CLASSIFICATION_TYPE":"U","COUNTRY_CODE":"US","EPHEMERIS_TYPE":"0","OBJECT_ID":"2022-053Z","MEAN_MOTION_DOT":"0.00011974","TIME_SYSTEM":"UTC","REV_AT_EPOCH":"130","INCLINATION":"53.2135","SITE":"AFETR","RCS_SIZE":"LARGE","LAUNCH_DATE":"2022-05-18","ELEMENT_SET_NO":"999","TLE_LINE2":"2 52679  53.2135 254.9388 0002024  42.7512  29.7906 15.08798962  1300","TLE_LINE1":"1 52679U 22053Z   22221.91667824  .00011974  00000-0  77001-3 0  9993","NORAD_CAT_ID":"52679","EPOCH":"2022-08-09T22:00:00.999936","ARG_OF_PERICENTER":"42.7512","OBJECT_NAME":"STARLINK-4031","MEAN_ELEMENT_THEORY":"SGP4","MEAN_MOTION":"15.08798962","SEMIMAJOR_AXIS":"6918.006"},{"INCLINATION":"53.2143","REV_AT_EPOCH":"130","RCS_SIZE":"LARGE","SITE":"AFETR","TIME_SYSTEM":"UTC","MEAN_MOTION_DOT":"0.00038020","OBJECT_NAME":"STARLINK-3774","MEAN_ELEMENT_THEORY":"SGP4","MEAN_MOTION":"15.08791049","ARG_OF_PERICENTER":"46.4262","SEMIMAJOR_AXIS":"6918.030","LAUNCH_DATE":"2022-05-18","ELEMENT_SET_NO":"999","TLE_LINE2":"2 52680  53.2143 254.9442 0001542  46.4262 306.0991 15.08791049  1303","TLE_LINE1":"1 52680U 22053AA  22221.91667824  .00038020  00000-0  23973-2 0  9994","NORAD_CAT_ID":"52680","EPOCH":"2022-08-09T22:00:00.999936","APOAPSIS":"540.962","REF_FRAME":"TEME","PERIAPSIS":"538.828","BSTAR":"0.00239730000000","MEAN_ANOMALY":"306.0991","MEAN_MOTION_DDOT":"0.0000000000000","PERIOD":"95.441","OBJECT_TYPE":"PAYLOAD","DECAY_DATE":null,"FILE":"3533123","COUNTRY_CODE":"US","EPHEMERIS_TYPE":"0","OBJECT_ID":"2022-053AA","CLASSIFICATION_TYPE":"U","GP_ID":"209932374","CENTER_NAME":"EARTH","ECCENTRICITY":"0.00015420","RA_OF_ASC_NODE":"254.9442"},{"MEAN_ANOMALY":"53.8265","BSTAR":"0.00082049000000","MEAN_MOTION_DDOT":"0.0000000000000","REF_FRAME":"TEME","APOAPSIS":"541.217","PERIAPSIS":"538.490","OBJECT_TYPE":"PAYLOAD","DECAY_DATE":null,"PERIOD":"95.440","COUNTRY_CODE":"US","EPHEMERIS_TYPE":"0","OBJECT_ID":"2022-053AB","GP_ID":"209931846","CLASSIFICATION_TYPE":"U","FILE":"3533123","RA_OF_ASC_NODE":"254.9386","ECCENTRICITY":"0.00019710","CENTER_NAME":"EARTH","RCS_SIZE":"LARGE","SITE":"AFETR","REV_AT_EPOCH":"130","INCLINATION":"53.2135","TIME_SYSTEM":"UTC","MEAN_MOTION_DOT":"0.00012782","SEMIMAJOR_AXIS":"6917.989","MEAN_MOTION":"15.08804518","MEAN_ELEMENT_THEORY":"SGP4","OBJECT_NAME":"STARLINK-4068","ARG_OF_PERICENTER":"38.6844","EPOCH":"2022-08-09T22:00:00.999936","TLE_LINE1":"1 52681U 22053AB  22221.91667824  .00012782  00000-0  82049-3 0  9992","NORAD_CAT_ID":"52681","TLE_LINE2":"2 52681  53.2135 254.9386 0001971  38.6844  53.8265 15.08804518  1304","LAUNCH_DATE":"2022-05-18","ELEMENT_SET_NO":"999"},{"RA_OF_ASC_NODE":"254.9392","CENTER_NAME":"EARTH","ECCENTRICITY":"0.00018930","COUNTRY_CODE":"US","OBJECT_ID":"2022-053AC","EPHEMERIS_TYPE":"0","CLASSIFICATION_TYPE":"U","GP_ID":"209932499","FILE":"3533123","OBJECT_TYPE":"PAYLOAD","DECAY_DATE":null,"PERIOD":"95.440","BSTAR":"0.00087675000000","MEAN_ANOMALY":"352.4748","MEAN_MOTION_DDOT":"0.0000000000000","APOAPSIS":"541.177","REF_FRAME":"TEME","PERIAPSIS":"538.558","TLE_LINE1":"1 52682U 22053AC  22221.91667824  .00013678  00000-0  87675-3 0  9998","NORAD_CAT_ID":"52682","EPOCH":"2022-08-09T22:00:00.999936","LAUNCH_DATE":"2022-05-18","ELEMENT_SET_NO":"999","TLE_LINE2":"2 52682  53.2123 254.9392 0001893  40.0772 352.4748 15.08800063  1304","SEMIMAJOR_AXIS":"6918.002","OBJECT_NAME":"STARLINK-4017","MEAN_ELEMENT_THEORY":"SGP4","MEAN_MOTION":"15.08800063","ARG_OF_PERICENTER":"40.0772","TIME_SYSTEM":"UTC","MEAN_MOTION_DOT":"0.00013678","RCS_SIZE":"LARGE","SITE":"AFETR","REV_AT_EPOCH":"130","INCLINATION":"53.2123"},{"SEMIMAJOR_AXIS":"6917.998","ARG_OF_PERICENTER":"40.3389","MEAN_ELEMENT_THEORY":"SGP4","MEAN_MOTION":"15.08801540","OBJECT_NAME":"STARLINK-4039","EPOCH":"2022-08-09T22:00:00.999936","TLE_LINE1":"1 52683U 22053AD  22221.91667824  .00033650  00000-0  21245-2 0  9991","NORAD_CAT_ID":"52683","TLE_LINE2":"2 52683  53.2139 254.9376 0001835  40.3389  92.1854 15.08801540  1304","LAUNCH_DATE":"2022-05-18","ELEMENT_SET_NO":"999","SITE":"AFETR","RCS_SIZE":"LARGE","INCLINATION":"53.2139","REV_AT_EPOCH":"130","MEAN_MOTION_DOT":"0.00033650","TIME_SYSTEM":"UTC","CLASSIFICATION_TYPE":"U","GP_ID":"209931715","COUNTRY_CODE":"US","OBJECT_ID":"2022-053AD","EPHEMERIS_TYPE":"0","FILE":"3533123","RA_OF_ASC_NODE":"254.9376","ECCENTRICITY":"0.00018350","CENTER_NAME":"EARTH","MEAN_MOTION_DDOT":"0.0000000000000","MEAN_ANOMALY":"92.1854","BSTAR":"0.00212450000000","PERIAPSIS":"538.593","REF_FRAME":"TEME","APOAPSIS":"541.132","DECAY_DATE":null,"OBJECT_TYPE":"PAYLOAD","PERIOD":"95.440"},{"MEAN_MOTION_DDOT":"0.0000000000000","MEAN_ANOMALY":"7.4184","BSTAR":"0.00169020000000","PERIAPSIS":"538.587","REF_FRAME":"TEME","APOAPSIS":"541.163","DECAY_DATE":null,"OBJECT_TYPE":"PAYLOAD","PERIOD":"95.440","GP_ID":"209931977","CLASSIFICATION_TYPE":"U","COUNTRY_CODE":"US","EPHEMERIS_TYPE":"0","OBJECT_ID":"2022-053AE","FILE":"3533123","RA_OF_ASC_NODE":"254.9394","ECCENTRICITY":"0.00018620","CENTER_NAME":"EARTH","SITE":"AFETR","RCS_SIZE":"LARGE","REV_AT_EPOCH":"130","INCLINATION":"53.2129","MEAN_MOTION_DOT":"0.00026683","TIME_SYSTEM":"UTC","SEMIMAJOR_AXIS":"6918.010","ARG_OF_PERICENTER":"45.1019","MEAN_MOTION":"15.08797613","MEAN_ELEMENT_THEORY":"SGP4","OBJECT_NAME":"STARLINK-4014","EPOCH":"2022-08-09T22:00:00.999936","NORAD_CAT_ID":"52684","TLE_LINE1":"1 52684U 22053AE  22221.91667824  .00026683  00000-0  16902-2 0  9994","TLE_LINE2":"2 52684  53.2129 254.9394 0001862  45.1019   7.4184 15.08797613  1307","ELEMENT_SET_NO":"999","LAUNCH_DATE":"2022-05-18"}];
